[{"OBJECT_NAME":"ALTAIR (RS65S)","OBJECT_ID":"2024-199AW","EPOCH":"2026-03-09T21:31:54.569568","MEAN_MOTION":15.34998047,"ECCENTRICITY":0.00120363,"INCLINATION":97.3179,"RA_OF_ASC_NODE":298.9542,"ARG_OF_PERICENTER":307.5319,"MEAN_ANOMALY":52.483,"EPHEMERIS_TYPE":0,"CLASSIFICATION_TYPE":"U","NORAD_CAT_ID":61779,"ELEMENT_SET_NO":999,"REV_AT_EPOCH":12187,"BSTAR":0.00027541775,"MEAN_MOTION_DOT":9.293e-5,"MEAN_MOTION_DDOT":0},{"OBJECT_NAME":"STARLINK-36317","OBJECT_ID":"2026-026R","EPOCH":"2026-03-09T22:00:01.999584","MEAN_MOTION":15.48735055,"ECCENTRICITY":0.00018531,"INCLINATION":97.285,"RA_OF_ASC_NODE":123.5111,"ARG_OF_PERICENTER":76.5703,"MEAN_ANOMALY":154.3041,"EPHEMERIS_TYPE":0,"CLASSIFICATION_TYPE":"U","NORAD_CAT_ID":67736,"ELEMENT_SET_NO":999,"REV_AT_EPOCH":535,"BSTAR":-0.039742564,"MEAN_MOTION_DOT":-0.01911481,"MEAN_MOTION_DDOT":0}]
